CUTE-1 (CO-55)          
1 27844U 03031E   23357.54916292  .00000721  00000+0  33925-3 0  9994
2 27844  98.6785   2.0680 0008836 300.7697  59.2611 14.23009050 62694
CUBESAT XI-IV (CO-57)   
1 27848U 03031J   23356.99428015  .00000572  00000+0  27590-3 0  9992
2 27848  98.6817   1.8577 0008953 319.4336  40.6174 14.22486574 62342
CUBESAT XI-V            
1 28895U 05043F   23357.32755058  .00003421  00000+0  62372-3 0  9991
2 28895  98.1761 128.3524 0015882 191.9840 168.0988 14.66596056968525
CUTE-1.7+APD II (CO-65) 
1 32785U 08021C   23357.50641658  .00006436  00000+0  60379-3 0  9997
2 32785  97.7314 319.9218 0011175 185.9415 174.1675 14.94282531849077
AAUSAT-II               
1 32788U 08021F   23357.47236805  .00018260  00000+0  11445-2 0  9997
2 32788  97.5804 333.5607 0009200  71.2543 288.9683 15.09362732851605
SEEDS II (CO-66)        
1 32791U 08021J   23357.42694184  .00008753  00000+0  71040-3 0  9998
2 32791  97.6803 325.3371 0010243 130.8155 229.3958 14.99839552849996
SWISSCUBE               
1 35932U 09051B   23357.60128887  .00002149  00000+0  47463-3 0  9999
2 35932  98.4940 232.2281 0007970 135.8097 224.3739 14.58349783756813
BEESAT-1                
1 35933U 09051C   23357.57972205  .00001866  00000+0  41509-3 0  9997
2 35933  98.4868 233.3307 0006035 144.9217 215.2380 14.58178220756884
ITUPSAT1                
1 35935U 09051E   23357.60852893  .00001690  00000+0  38502-3 0  9997
2 35935  98.4966 233.2300 0008198 153.3338 206.8282 14.57185003756543
TISAT 1                 
1 36799U 10035E   23357.64572058  .00009603  00000+0  79648-3 0  9994
2 36799  98.1087 234.7283 0011176  63.1792 297.0571 14.98986013730787
M-CUBED & EXP-1 PRIME   
1 37855U 11061F   23356.80073754  .00067688  00000+0  14334-2 0  9991
2 37855 101.6946  67.2279 0089522 177.7903 182.3741 15.40608057665458
AEROCUBE 4.5A           
1 38767U 12048K   23357.61175623  .00013123  00000+0  83093-3 0  9992
2 38767  64.6609 159.2934 0103371  84.6314 276.6587 15.04864737233855
AEROCUBE 4.5B           
1 38768U 12048L   23357.58347118  .00021974  00000+0  10814-2 0  9992
2 38768  64.6625  95.5270 0083072  73.6208 287.4028 15.14978270234595
STRAND-1                
1 39090U 13009E   23357.49712665  .00000678  00000+0  24871-3 0  9999
2 39090  98.3795 185.6506 0009899  63.2401 296.9797 14.35820332566889
BRITE-AUSTRIA           
1 39091U 13009F   23357.51508129  .00000442  00000+0  16786-3 0  9996
2 39091  98.3831 184.9221 0011478  69.1286 291.1128 14.35635824566918
BEESAT-3                
1 39135U 13015F   23357.52851084  .01306940  99443-3  20091-2 0  9993
2 39135  64.8343  45.9646 0010070 334.1314  25.9349 16.04121766591889
BEESAT-2                
1 39136U 13015G   23357.58354717  .00266199  00000+0  18549-2 0  9993
2 39136  64.8559  64.9419 0014817 284.5546  75.3964 15.73176092591548
NEE-01 PEGASO           
1 39151U 13018B   23357.26130799  .00004723  00000+0  57086-3 0  9993
2 39151  98.0220 108.0873 0014455 255.3576 104.6035 14.84138927575712
ESTCUBE 1               
1 39161U 13021C   23357.72140112  .00003386  00000+0  50675-3 0  9990
2 39161  97.8528  64.5173 0010435  81.7078 278.5314 14.75291368571101
POPACS 1                
1 39268U 13055D   23357.42015080  .00042262  00000+0  84920-3 0  9993
2 39268  80.9869 352.0064 0455088 295.5904  59.8932 14.79695895535769
POPACS 2                
1 39269U 13055E   23357.20150704  .00021515  00000+0  52241-3 0  9992
2 39269  81.0057  70.4777 0580104 140.0034 224.5430 14.49657561529895
POPACS 3                
1 39270U 13055F   23357.73898760  .00011563  00000+0  33294-3 0  9992
2 39270  81.0119 115.1328 0645812 265.4698  87.2491 14.32214447528367
ZACUBE-1 (TSHEPISOSAT)  
1 39417U 13066B   23357.46718291  .00006525  00000+0  71752-3 0  9990
2 39417  97.7115 312.9896 0054019  25.8504 334.5393 14.86864714545303
WNISAT-1                
1 39423U 13066H   23357.55096906  .00002324  00000+0  45620-3 0  9997
2 39423  97.6784 201.1400 0170836 203.1976 156.1447 14.54683798534965
TRITON-1                
1 39427U 13066M   23357.79933371  .00006178  00000+0  90109-3 0  9996
2 39427  97.8417 276.7019 0104082 289.8862  69.1154 14.72474180540433
DELFI-N3XT              
1 39428U 13066N   23357.33235949  .00010236  00000+0  13927-2 0  9995
2 39428  97.8386 275.7673 0104872 301.3228  57.7748 14.75156762539994
GOMX-1                  
1 39430U 13066Q   23357.79426362  .00003054  00000+0  52161-3 0  9993
2 39430  97.7560 237.7420 0144337  92.7944 268.9789 14.62920662537245
CUBEBUG-2 (LO-74)       
1 39440U 13066AA  23357.57942288  .00005015  00000+0  62117-3 0  9991
2 39440  97.7952 300.5707 0074001 129.6206 231.1570 14.81195435542170
NEE-02 KRYSAOR          
1 39441U 13066AB  23356.82437304  .00003196  00000+0  42176-3 0  9998
2 39441  97.8054 296.2742 0076969 151.0061 209.5459 14.78678183541714
FUNCUBE-1 (AO-73)       
1 39444U 13066AE  23357.45537683  .00008902  00000+0  92689-3 0  9996
2 39444  97.6974 315.7461 0051423   9.5972 350.6215 14.89064986543786
UWE-3                   
1 39446U 13066AG  23357.43508219  .00005367  00000+0  62948-3 0  9996
2 39446  97.7602 306.5083 0064989  79.6764 281.1768 14.83845690542472
BRITE-CA1 (TORONTO)     
1 40020U 14033L   23357.33448858  .00001822  00000+0  30584-3 0  9995
2 40020  97.8508 136.0904 0083143 297.1066  62.1676 14.68636105508908
DUCHIFAT-1              
1 40021U 14033M   23357.83787079  .00014543  00000+0  11129-2 0  9999
2 40021  98.0745 328.6142 0013140 347.2886  12.8004 15.01938942517612
NANOSATC-BR1            
1 40024U 14033Q   23357.36624935  .00010603  00000+0  87491-3 0  9990
2 40024  98.0508 317.8951 0009980  23.9821 336.1864 14.99160854516726
QB50P1                  
1 40025U 14033R   23357.40923448  .00008784  00000+0  77819-3 0  9997
2 40025  98.0196 308.0881 0011780  34.6684 325.5302 14.96441973516417
QB50P2                  
1 40032U 14033Y   23357.37730597  .00007689  00000+0  69931-3 0  9991
2 40032  97.9870 300.8328 0011133  32.2804 327.9095 14.95459699516225
PERSEUS-M2              
1 40037U 14033AD  23357.32807516  .00002928  00000+0  31387-3 0  9992
2 40037  97.9180 282.7644 0014970  61.1469 299.1248 14.89357390515499
PERSEUS-M1              
1 40039U 14033AF  23357.79305304  .00003633  00000+0  39069-3 0  9992
2 40039  97.9008 279.7663 0014800  59.3231 300.9442 14.89072871515939
POLYITAN-1              
1 40042U 14033AJ  23357.46181212  .00010453  00000+0  88700-3 0  9994
2 40042  98.0307 310.6657 0013032  21.4702 338.7063 14.98055735516348
TIGRISAT                
1 40043U 14033AK  23357.46853613  .00004037  00000+0  55649-3 0  9993
2 40043  97.6742 163.2233 0057130 157.5370 202.8362 14.77597531511359
AEROCUBE 6A             
1 40045U 14033AM  23357.44195457  .00007665  00000+0  97515-3 0  9996
2 40045  97.6574 173.3873 0053326 139.7854 220.7324 14.80838628511613
AEROCUBE 6B             
1 40046U 14033AN  23357.44302091  .00007795  00000+0  97353-3 0  9995
2 40046  97.6524 171.9564 0052059 136.0395 224.4977 14.81650844511654
UKUBE-1                 
1 40074U 14037F   23357.30498318  .00008033  00000+0  82435-3 0  9994
2 40074  98.3394 271.9070 0002884 311.7820  48.3149 14.90696290512400
BRITE-PL2 (HEWELIUSZ)   
1 40119U 14049B   23357.52304647  .00003213  00000+0  35860-3 0  9997
2 40119  97.8834  93.2307 0015424 222.3876 137.6149 14.87635106506302
GRIFEX                  
1 40379U 15003D   23357.48365887  .00165901  00000+0  12887-2 0  9990
2 40379  99.0830 343.8253 0040637 332.6030  27.3083 15.70151200492739
CP10 (EXOCUBE)          
1 40380U 15003E   23357.43190001  .00062398  00000+0  10885-2 0  9993
2 40380  99.0971 329.0464 0073016  16.7821 343.5815 15.47500056491828
EXACTVIEW 9             
1 40936U 15052G   23355.44009466  .00003551  00000+0  37756-3 0  9990
2 40936   6.0020 187.7456 0009396  65.6238 294.4870 14.79533165445020
AEROCUBE 5C             
1 40965U 15058B   23357.57971619  .00003665  00000+0  37876-3 0  9991
2 40965  64.7700 182.9597 0176050   4.3883 355.8716 14.80910189230872
AEROCUBE 7              
1 40966U 15058C   23357.58248089  .00004696  00000+0  46858-3 0  9996
2 40966  64.7682 178.1082 0172552   4.0799 356.1666 14.82244798230915
VELOX-II                
1 41171U 15077F   23357.27302957  .00049950  00000+0  11964-2 0  9998
2 41171  14.9915 348.0258 0003570   6.6685 353.3687 15.39502890444257
HORYU-4                 
1 41340U 16012D   23357.49995967  .00012536  00000+0  71383-3 0  9991
2 41340  31.0048  42.5620 0010031 342.8743  17.1556 15.11571639431355
E-ST@R-II               
1 41459U 16025D   23357.73074423  .00084924  00000+0  14331-2 0  9997
2 41459  98.1568 220.3162 0073121 150.1480 210.3970 15.48323360422028
RAVAN                   
1 41849U 16067B   23357.45852712  .00012864  00000+0  80380-3 0  9992
2 41849  98.0505 160.5384 0013815 269.7750  90.1894 15.09529267389283
CELTEE 1                
1 41850U 16067C   23357.39880852  .00007557  00000+0  55356-3 0  9991
2 41850  98.0796 153.3917 0001368  67.8193 292.3176 15.03859899388837
OPTICUBE 04             
1 41851U 16067D   23357.39986922  .00003882  00000+0  30812-3 0  9994
2 41851  98.0454 150.4425 0013975 286.1856  73.7829 15.01062166388703
AEROCUBE 8D             
1 41852U 16067E   23357.43488364  .00007937  00000+0  56962-3 0  9996
2 41852  98.0875 152.7998 0005265 354.1690   5.9473 15.04605781388796
AEROCUBE 8C             
1 41853U 16067F   23357.44029017  .00008493  00000+0  61041-3 0  9996
2 41853  98.0682 151.8409 0007619 275.7452  84.2904 15.04512507388780
PROMETHEUS 2-1          
1 41854U 16067G   23357.43702823  .00015157  00000+0  92393-3 0  9998
2 41854  98.0845 156.7245 0014117 299.8471  60.1354 15.10386010389006
PROMETHEUS 2-3          
1 41855U 16067H   23357.43205161  .00014753  00000+0  90027-3 0  9995
2 41855  98.0765 156.3824 0012014 310.5376  49.4805 15.10377650389007
